STARLINK-30705
1 57945U 23148L   25352.52012932 -.00000186  00000+0  58277-5 0  9998
2 57945  53.1605  41.4014 0001084  99.3127 260.7997 15.30192945125995